[{"OBJECT_NAME":"STELLA","OBJECT_ID":"1993-061B","EPOCH":"2026-03-09T22:50:14.153280","MEAN_MOTION":14.2746756,"ECCENTRICITY":0.00067535,"INCLINATION":98.784,"RA_OF_ASC_NODE":132.7988,"ARG_OF_PERICENTER":156.9855,"MEAN_ANOMALY":327.7404,"EPHEMERIS_TYPE":0,"CLASSIFICATION_TYPE":"U","NORAD_CAT_ID":22824,"ELEMENT_SET_NO":999,"REV_AT_EPOCH":69061,"BSTAR":7.617075e-6,"MEAN_MOTION_DOT":-2.6e-7,"MEAN_MOTION_DDOT":0},{"OBJECT_NAME":"CZ-6A DEB","OBJECT_ID":"2024-140RQ","EPOCH":"2026-03-09T13:04:00.378048","MEAN_MOTION":14.423653,"ECCENTRICITY":0.00641611,"INCLINATION":88.7926,"RA_OF_ASC_NODE":269.3582,"ARG_OF_PERICENTER":295.8367,"MEAN_ANOMALY":63.6227,"EPHEMERIS_TYPE":0,"CLASSIFICATION_TYPE":"U","NORAD_CAT_ID":61170,"ELEMENT_SET_NO":999,"REV_AT_EPOCH":8138,"BSTAR":0.00022746639,"MEAN_MOTION_DOT":7.85e-6,"MEAN_MOTION_DDOT":0}]
